#aV2015  1  7  0  0  0.00000000     288 DD+AD WGS84 FIT  NGA
## 1826 259200.00000000   300.00000000 57029 0.0000000000000
+   32     1  2  3  4  5  6  7  8  9 10 11 12 13 14 15 16 17
+         18 19 20 21 22 23 24 25 26 27 28 29 30 31 32  0  0
+          0  0  0  0  0  0  0  0  0  0  0  0  0  0  0  0  0
+          0  0  0  0  0  0  0  0  0  0  0  0  0  0  0  0  0
+          0  0  0  0  0  0  0  0  0  0  0  0  0  0  0  0  0
++         2  2  2  2  2  2  2  2  2  2  2  2  2  2  2  2  2
++         2  2  2  2  2  2  2  2  2  2  2  2  2  2  2  0  0
++         0  0  0  0  0  0  0  0  0  0  0  0  0  0  0  0  0
++         0  0  0  0  0  0  0  0  0  0  0  0  0  0  0  0  0
++         0  0  0  0  0  0  0  0  0  0  0  0  0  0  0  0  0
%c cc cc ccc ccc cccc cccc cccc cccc ccccc ccccc ccccc ccccc
%c cc cc ccc ccc cccc cccc cccc cccc ccccc ccccc ccccc ccccc
%f  0.0000000  0.000000000  0.00000000000  0.000000000000000
%f  0.0000000  0.000000000  0.00000000000  0.000000000000000
%i    0    0    0    0      0      0      0      0         0
%i    0    0    0    0      0      0      0      0         0
/*      NGA, ST. LOUIS,MO.                                  
/*   EPHEMERIS COMPUTED FROM  1 DAYS OF DATA                
/*   EPOCHA SMOOTHER                                       
/* CCCCCCCCCCCCCCCCCCCCCCCCCCCCCCCCCCCCCCCCCCCCCCCCCCCCCCCCC
*  2015  1  7 10 25  0.00000000
P  1  19811.210560   8543.977900  15548.477308    -10.424134                    
V  1  10262.907479  16997.369303 -22180.059794      0.003673                    
P  2 -13278.012948 -22787.216982   5189.333534    540.425135                    
V  2   6080.256745   2967.823137  30083.660595      0.022461                    
P  3  16282.756775   -632.405557  20987.496016    131.923322                    
V  3  -9782.430201  24785.550829   8292.333335      0.260323                    
P  4  19272.789810  17140.289974   6583.246829     -5.303394                    
V  4   2820.940555   8844.398718 -29601.572989     -0.005542                    
P  5  -6107.526735 -18667.546650 -17851.979262   -296.089818                    
V  5  10567.933860 -20150.956223  17684.697825      0.050141                    
P  6  -1676.088176 -20988.382244  16189.352084     45.107699                    
V  6  13862.469031  15309.443861  21251.180436      0.098136                    
P  7  15207.254612  -3815.341326 -21392.760775    429.344934                    
V  7  15526.869019  22457.583967   6655.351046      0.034205                    
P  8  13655.828939  23149.706079   -769.290943     17.041774                    
V  8   -449.090403   1649.497912  32066.989607      0.001996                    
P  9  24475.138069  -7806.874377  -6769.432661    -48.123884                    
V  9   8859.107074   1666.667928  30124.722254     -0.108211                    
P 10   8113.630788 -24846.469679  -3528.102852   -157.707844                    
V 10   5069.193127  -2243.148330  31157.409384     -0.016525                    
P 11  23719.447750  10317.879300   5841.085278   -549.126662                    
V 11   4108.294286   8433.268362 -28844.281305     -0.026586                    
P 12 -14474.381170  -3214.202889  21940.603742    259.493709                    
V 12  11807.941288 -25379.013796   4265.152006      0.029129                    
P 13 -12704.574304 -13050.482686 -19455.764699    -76.522848                    
V 13  24337.313559  -1387.448511 -15240.229419     -0.040369                    
P 14 -10280.457920  14280.634615  20082.907008     99.107677                    
V 14 -25038.716517      6.801087 -13112.444194     -0.035673                    
P 15 -24281.415751  -3880.907528 -10513.387777   -224.898920                    
V 15  12531.511898  -5014.879736 -26981.861679     -0.022325                    
P 16   4275.643626  18497.240874 -18468.882480   -166.970127                    
V 16 -11639.423319  20343.654789  18090.216172      0.031117                    
P 17  12036.400705 -14086.452471  19227.793941   -148.574292                    
V 17  23893.288806   -529.662267 -15793.974447     -0.022129                    
P 18 -15584.192681  18721.585486  -9736.085284    370.569396                    
V 18   1421.818528 -13685.177911 -27591.261043      0.026844                    
P 19  20835.298044   9232.586118 -14184.687009   -495.667771                    
V 19 -17480.349645   2058.040474 -24192.350538     -0.015449                    
P 20  17176.419729 -11274.960187  16633.413657    275.965324                    
V 20  -4730.677196  21203.245967  19140.137763      0.042044                    
P 21 -11820.557246  10009.537629 -20899.244260   -404.764858                    
V 21 -17465.836038 -22188.720624  -1125.683148     -0.023114                    
P 22  -8848.588557  24902.138125   1678.575355    304.772934                    
V 22  -4559.888542    185.456175 -30894.182901      0.038163                    
P 23  26564.780067   -423.710203   3590.460289    -79.981537                    
V 23  -4014.249252   3224.756574  30799.445474     -0.026841                    
P 24 -20302.437463 -11156.996448  13089.417491    -41.380612                    
V 24  -8326.146588 -14565.158741 -25154.421060     -0.006173                    
P 25 -17099.355023  11056.308069  16893.792219      4.773989                    
V 25   7026.074536 -20509.419145  20583.896409     -0.023513                    
P 26 -13827.277049 -12943.217461 -19399.091421 999999.999999                    
V 26  23086.019197  -1347.805556 -15847.789015      0.000023                    
P 27  11178.397284  12843.175872 -20416.696661     42.597961                    
V 27 -25559.882998   4052.063078 -11367.916399      0.026879                    
P 28  12963.504311 -23000.324668  -1647.999719    410.744126                    
V 28    549.949606   3491.918553 -32331.604077      0.026700                    
P 29 -25809.320808   4547.400103  -4154.362274    584.423367                    
V 29  -5463.182114  -2099.986293  31448.264307      0.023819                    
P 30   7828.098322 -14749.408977 -20644.336687    -86.362725                    
V 30  14885.067136  21624.301553  -9850.998385     -0.002707                    
P 31   3221.027428  21840.226829  14663.024415    325.955884                    
V 31 -12161.655743 -14026.389524  24125.262667     -0.007282                    
P 32   9613.613514  13721.347160  20714.997031   -253.106942                    
V 32 -12868.586853  22881.153032  -8640.202038      0.086198                    
EOF
